{
  "type": "FeatureCollection",
  "features": [
    {
      "type": "Feature",
      "properties": {
        "norad_id": 66357,
        "name": "STARLINK-35817",
        "group": "last-30-days",
        "lat": 28.99133151543744,
        "lon": 115.9725335509853,
        "alt_km": 375.9251878487712,
        "timestamp": "2025-12-03T13:52:08.344324+00:00",
        "meta_object_name": "STARLINK-35817",
        "meta_object_id": "2025-254K",
        "meta_epoch": "2025-12-03T08:00:01.999872",
        "meta_mean_motion": 15.63785186,
        "meta_eccentricity": 0.00014548,
        "meta_inclination": 53.1596,
        "meta_ra_of_asc_node": 321.7136,
        "meta_arg_of_pericenter": 87.8936,
        "meta_mean_anomaly": 117.8787,
        "meta_ephemeris_type": 0,
        "meta_classification_type": "U",
        "meta_norad_cat_id": 66357,
        "meta_element_set_no": 999,
        "meta_rev_at_epoch": 541,
        "meta_bstar": -0.023949097,
        "meta_mean_motion_dot": -0.0200742,
        "meta_mean_motion_ddot": 0,
        "tle_line1": "1 66357U 25254K   25337.33335648 -.02007420  00000+0 -23949-1 0  9994",
        "tle_line2": "2 66357  53.1596 321.7136 0001454  87.8936 117.8787 15.63785186  5415"
      },
      "geometry": {
        "type": "Point",
        "coordinates": [
          115.9725335509853,
          28.99133151543744
        ]
      }
    },
    {
      "type": "Feature",
      "properties": {
        "norad_id": 66358,
        "name": "STARLINK-35807",
        "group": "last-30-days",
        "lat": 27.586534053032672,
        "lon": 117.45309574901317,
        "alt_km": 376.2303228081264,
        "timestamp": "2025-12-03T13:52:08.344335+00:00",
        "meta_object_name": "STARLINK-35807",
        "meta_object_id": "2025-254L",
        "meta_epoch": "2025-12-03T08:00:01.999872",
        "meta_mean_motion": 15.6378704,
        "meta_eccentricity": 0.00013524,
        "meta_inclination": 53.1598,
        "meta_ra_of_asc_node": 321.7092,
        "meta_arg_of_pericenter": 87.1324,
        "meta_mean_anomaly": 120.5566,
        "meta_ephemeris_type": 0,
        "meta_classification_type": "U",
        "meta_norad_cat_id": 66358,
        "meta_element_set_no": 999,
        "meta_rev_at_epoch": 541,
        "meta_bstar": -0.023984287,
        "meta_mean_motion_dot": -0.02010058,
        "meta_mean_motion_ddot": 0,
        "tle_line1": "1 66358U 25254L   25337.33335648 -.02010058  00000+0 -23984-1 0  9995",
        "tle_line2": "2 66358  53.1598 321.7092 0001352  87.1324 120.5566 15.63787040  5417"
      },
      "geometry": {
        "type": "Point",
        "coordinates": [
          117.45309574901317,
          27.586534053032672
        ]
      }
    },
    {
      "type": "Feature",
      "properties": {
        "norad_id": 66359,
        "name": "STARLINK-35805",
        "group": "last-30-days",
        "lat": 26.16569646234695,
        "lon": 118.89705926550806,
        "alt_km": 376.45086135016936,
        "timestamp": "2025-12-03T13:52:08.344345+00:00",
        "meta_object_name": "STARLINK-35805",
        "meta_object_id": "2025-254M",
        "meta_epoch": "2025-12-03T08:00:01.999872",
        "meta_mean_motion": 15.63788893,
        "meta_eccentricity": 0.00014624,
        "meta_inclination": 53.1597,
        "meta_ra_of_asc_node": 321.7056,
        "meta_arg_of_pericenter": 86.7732,
        "meta_mean_anomaly": 122.831,
        "meta_ephemeris_type": 0,
        "meta_classification_type": "U",
        "meta_norad_cat_id": 66359,
        "meta_element_set_no": 999,
        "meta_rev_at_epoch": 538,
        "meta_bstar": -0.024005275,
        "meta_mean_motion_dot": -0.02011816,
        "meta_mean_motion_ddot": 0,
        "tle_line1": "1 66359U 25254M   25337.33335648 -.02011816  00000+0 -24005-1 0  9994",
        "tle_line2": "2 66359  53.1597 321.7056 0001462  86.7732 122.8310 15.63788893  5382"
      },
      "geometry": {
        "type": "Point",
        "coordinates": [
          118.89705926550806,
          26.16569646234695
        ]
      }
    },
    {
      "type": "Feature",
      "properties": {
        "norad_id": 66360,
        "name": "STARLINK-35823",
        "group": "last-30-days",
        "lat": 23.284624500699646,
        "lon": 121.67944925461128,
        "alt_km": 376.9754790150573,
        "timestamp": "2025-12-03T13:52:08.344358+00:00",
        "meta_object_name": "STARLINK-35823",
        "meta_object_id": "2025-254N",
        "meta_epoch": "2025-12-03T08:00:01.999872",
        "meta_mean_motion": 15.63791148,
        "meta_eccentricity": 0.00013705,
        "meta_inclination": 53.1598,
        "meta_ra_of_asc_node": 321.6967,
        "meta_arg_of_pericenter": 89.1313,
        "meta_mean_anomaly": 124.3061,
        "meta_ephemeris_type": 0,
        "meta_classification_type": "U",
        "meta_norad_cat_id": 66360,
        "meta_element_set_no": 999,
        "meta_rev_at_epoch": 541,
        "meta_bstar": -0.024045234,
        "meta_mean_motion_dot": -0.02014838,
        "meta_mean_motion_ddot": 0,
        "tle_line1": "1 66360U 25254N   25337.33335648 -.02014838  00000+0 -24045-1 0  9997",
        "tle_line2": "2 66360  53.1598 321.6967 0001370  89.1313 124.3061 15.63791148  5416"
      },
      "geometry": {
        "type": "Point",
        "coordinates": [
          121.67944925461128,
          23.284624500699646
        ]
      }
    },
    {
      "type": "Feature",
      "properties": {
        "norad_id": 66361,
        "name": "STARLINK-35813",
        "group": "last-30-days",
        "lat": 24.73233301777807,
        "lon": 120.30437730974934,
        "alt_km": 376.695970469179,
        "timestamp": "2025-12-03T13:52:08.344371+00:00",
        "meta_object_name": "STARLINK-35813",
        "meta_object_id": "2025-254P",
        "meta_epoch": "2025-12-03T08:00:01.999872",
        "meta_mean_motion": 15.63789685,
        "meta_eccentricity": 0.00014804,
        "meta_inclination": 53.16,
        "meta_ra_of_asc_node": 321.7016,
        "meta_arg_of_pericenter": 87.3125,
        "meta_mean_anomaly": 124.2064,
        "meta_ephemeris_type": 0,
        "meta_classification_type": "U",
        "meta_norad_cat_id": 66361,
        "meta_element_set_no": 999,
        "meta_rev_at_epoch": 541,
        "meta_bstar": -0.02399513,
        "meta_mean_motion_dot": -0.02011139,
        "meta_mean_motion_ddot": 0,
        "tle_line1": "1 66361U 25254P   25337.33335648 -.02011139  00000+0 -23995-1 0  9992",
        "tle_line2": "2 66361  53.1600 321.7016 0001480  87.3125 124.2064 15.63789685  5415"
      },
      "geometry": {
        "type": "Point",
        "coordinates": [
          120.30437730974934,
          24.73233301777807
        ]
      }
    },
    {
      "type": "Feature",
      "properties": {
        "norad_id": 66362,
        "name": "STARLINK-35822",
        "group": "last-30-days",
        "lat": 20.35665936015893,
        "lon": 124.34416994761759,
        "alt_km": 377.5300718898161,
        "timestamp": "2025-12-03T13:52:08.344381+00:00",
        "meta_object_name": "STARLINK-35822",
        "meta_object_id": "2025-254Q",
        "meta_epoch": "2025-12-03T08:00:01.999872",
        "meta_mean_motion": 15.63789509,
        "meta_eccentricity": 0.00014054,
        "meta_inclination": 53.1601,
        "meta_ra_of_asc_node": 321.6896,
        "meta_arg_of_pericenter": 86.4257,
        "meta_mean_anomaly": 130.8449,
        "meta_ephemeris_type": 0,
        "meta_classification_type": "U",
        "meta_norad_cat_id": 66362,
        "meta_element_set_no": 999,
        "meta_rev_at_epoch": 541,
        "meta_bstar": -0.024012402,
        "meta_mean_motion_dot": -0.02012338,
        "meta_mean_motion_ddot": 0,
        "tle_line1": "1 66362U 25254Q   25337.33335648 -.02012338  00000+0 -24012-1 0  9996",
        "tle_line2": "2 66362  53.1601 321.6896 0001405  86.4257 130.8449 15.63789509  5410"
      },
      "geometry": {
        "type": "Point",
        "coordinates": [
          124.34416994761759,
          20.35665936015893
        ]
      }
    },
    {
      "type": "Feature",
      "properties": {
        "norad_id": 66363,
        "name": "STARLINK-35806",
        "group": "last-30-days",
        "lat": 21.826877530938752,
        "lon": 123.02505113561936,
        "alt_km": 377.27055897910213,
        "timestamp": "2025-12-03T13:52:08.344391+00:00",
        "meta_object_name": "STARLINK-35806",
        "meta_object_id": "2025-254R",
        "meta_epoch": "2025-12-03T08:00:01.999872",
        "meta_mean_motion": 15.63793619,
        "meta_eccentricity": 0.0001403,
        "meta_inclination": 53.1601,
        "meta_ra_of_asc_node": 321.6934,
        "meta_arg_of_pericenter": 85.668,
        "meta_mean_anomaly": 129.6823,
        "meta_ephemeris_type": 0,
        "meta_classification_type": "U",
        "meta_norad_cat_id": 66363,
        "meta_element_set_no": 999,
        "meta_rev_at_epoch": 538,
        "meta_bstar": -0.024061202,
        "meta_mean_motion_dot": -0.0201621,
        "meta_mean_motion_ddot": 0,
        "tle_line1": "1 66363U 25254R   25337.33335648 -.02016210  00000+0 -24061-1 0  9994",
        "tle_line2": "2 66363  53.1601 321.6934 0001403  85.6680 129.6823 15.63793619  5388"
      },
      "geometry": {
        "type": "Point",
        "coordinates": [
          123.02505113561936,
          21.826877530938752
        ]
      }
    }
  ]
}